TRANSPORTER-12 OBJECT BT
1 62674U 25009BT  26068.71416991  .00013824  00000+0  51029-3 0  9998
2 62674  97.4094 151.5992 0003682 313.5044  46.5889 15.27872239121360
STARLINK-32919          
1 63150U 25043U   26068.23962019  .00030852  00000+0  11255-2 0  9996
2 63150  43.0058  18.7595 0001897 255.7736 104.2905 15.27591813 57298
